{
  "type": "FeatureCollection",
  "features": [
    {
      "type": "Feature",
      "properties": {
        "norad_id": 30315,
        "name": "FENGYUN 1C DEB",
        "group": "fengyun-1c-debris",
        "lat": -7.296990501780568,
        "lon": -171.0824172283688,
        "alt_km": 848.807733097231,
        "timestamp": "2025-12-26T22:28:06.059756+00:00",
        "meta_object_name": "FENGYUN 1C DEB",
        "meta_object_id": "1999-025AAC",
        "meta_epoch": "2025-12-26T13:40:49.790208",
        "meta_mean_motion": 14.19084011,
        "meta_eccentricity": 0.0034569,
        "meta_inclination": 98.6017,
        "meta_ra_of_asc_node": 9.6728,
        "meta_arg_of_pericenter": 320.0549,
        "meta_mean_anomaly": 157.9547,
        "meta_ephemeris_type": 0,
        "meta_classification_type": "U",
        "meta_norad_cat_id": 30315,
        "meta_element_set_no": 999,
        "meta_rev_at_epoch": 97903,
        "meta_bstar": 0.00034455878,
        "meta_mean_motion_dot": 6.82e-06,
        "meta_mean_motion_ddot": 0,
        "tle_line1": "1 30315U 99025AAC 25360.57002072  .00000682  00000+0  34456-3 0  9996",
        "tle_line2": "2 30315  98.6017   9.6728 0034569 320.0549 157.9547 14.19084011979032"
      },
      "geometry": {
        "type": "Point",
        "coordinates": [
          -171.0824172283688,
          -7.296990501780568
        ]
      }
    },
    {
      "type": "Feature",
      "properties": {
        "norad_id": 30316,
        "name": "FENGYUN 1C DEB",
        "group": "fengyun-1c-debris",
        "lat": -25.089614267044162,
        "lon": 107.95292171285288,
        "alt_km": 687.4081399101433,
        "timestamp": "2025-12-26T22:28:06.059770+00:00",
        "meta_object_name": "FENGYUN 1C DEB",
        "meta_object_id": "1999-025AAD",
        "meta_epoch": "2025-12-26T06:05:39.542496",
        "meta_mean_motion": 14.56300626,
        "meta_eccentricity": 0.00351072,
        "meta_inclination": 98.6474,
        "meta_ra_of_asc_node": 103.1599,
        "meta_arg_of_pericenter": 357.5019,
        "meta_mean_anomaly": 2.5997,
        "meta_ephemeris_type": 0,
        "meta_classification_type": "U",
        "meta_norad_cat_id": 30316,
        "meta_element_set_no": 999,
        "meta_rev_at_epoch": 98533,
        "meta_bstar": 0.0020921285,
        "meta_mean_motion_dot": 9.303e-05,
        "meta_mean_motion_ddot": 0,
        "tle_line1": "1 30316U 99025AAD 25360.25392989  .00009303  00000+0  20921-2 0  9991",
        "tle_line2": "2 30316  98.6474 103.1599 0035107 357.5019   2.5997 14.56300626985330"
      },
      "geometry": {
        "type": "Point",
        "coordinates": [
          107.95292171285288,
          -25.089614267044162
        ]
      }
    },
    {
      "type": "Feature",
      "properties": {
        "norad_id": 30317,
        "name": "FENGYUN 1C DEB",
        "group": "fengyun-1c-debris",
        "lat": -75.8503812529805,
        "lon": 38.84925475265063,
        "alt_km": 864.8447469173543,
        "timestamp": "2025-12-26T22:28:06.059781+00:00",
        "meta_object_name": "FENGYUN 1C DEB",
        "meta_object_id": "1999-025AAE",
        "meta_epoch": "2025-12-26T10:53:42.832608",
        "meta_mean_motion": 14.06954332,
        "meta_eccentricity": 0.00242638,
        "meta_inclination": 98.7867,
        "meta_ra_of_asc_node": 0.5371,
        "meta_arg_of_pericenter": 236.6303,
        "meta_mean_anomaly": 123.2543,
        "meta_ephemeris_type": 0,
        "meta_classification_type": "U",
        "meta_norad_cat_id": 30317,
        "meta_element_set_no": 999,
        "meta_rev_at_epoch": 97206,
        "meta_bstar": 0.00014458549,
        "meta_mean_motion_dot": 1.99e-06,
        "meta_mean_motion_ddot": 0,
        "tle_line1": "1 30317U 99025AAE 25360.45396797  .00000199  00000+0  14459-3 0  9999",
        "tle_line2": "2 30317  98.7867   0.5371 0024263 236.6303 123.2543 14.06954332972068"
      },
      "geometry": {
        "type": "Point",
        "coordinates": [
          38.84925475265063,
          -75.8503812529805
        ]
      }
    },
    {
      "type": "Feature",
      "properties": {
        "norad_id": 30320,
        "name": "FENGYUN 1C DEB",
        "group": "fengyun-1c-debris",
        "lat": -65.73072860692432,
        "lon": 81.29059140273074,
        "alt_km": 856.594471882644,
        "timestamp": "2025-12-26T22:28:06.059792+00:00",
        "meta_object_name": "FENGYUN 1C DEB",
        "meta_object_id": "1999-025AAH",
        "meta_epoch": "2025-12-26T14:57:43.701408",
        "meta_mean_motion": 13.98563531,
        "meta_eccentricity": 0.00847963,
        "meta_inclination": 99.1861,
        "meta_ra_of_asc_node": 59.9449,
        "meta_arg_of_pericenter": 256.2816,
        "meta_mean_anomaly": 261.9125,
        "meta_ephemeris_type": 0,
        "meta_classification_type": "U",
        "meta_norad_cat_id": 30320,
        "meta_element_set_no": 999,
        "meta_rev_at_epoch": 96601,
        "meta_bstar": 0.00034508817,
        "meta_mean_motion_dot": 4.64e-06,
        "meta_mean_motion_ddot": 0,
        "tle_line1": "1 30320U 99025AAH 25360.62342247  .00000464  00000+0  34509-3 0  9996",
        "tle_line2": "2 30320  99.1861  59.9449 0084796 256.2816 261.9125 13.98563531966010"
      },
      "geometry": {
        "type": "Point",
        "coordinates": [
          81.29059140273074,
          -65.73072860692432
        ]
      }
    },
    {
      "type": "Feature",
      "properties": {
        "norad_id": 30321,
        "name": "FENGYUN 1C DEB",
        "group": "fengyun-1c-debris",
        "lat": -7.269617353622877,
        "lon": 178.47295801144747,
        "alt_km": 797.3152446460863,
        "timestamp": "2025-12-26T22:28:06.059802+00:00",
        "meta_object_name": "FENGYUN 1C DEB",
        "meta_object_id": "1999-025AAJ",
        "meta_epoch": "2025-12-26T13:42:19.692864",
        "meta_mean_motion": 14.16657083,
        "meta_eccentricity": 0.00604681,
        "meta_inclination": 98.6566,
        "meta_ra_of_asc_node": 359.2313,
        "meta_arg_of_pericenter": 196.6742,
        "meta_mean_anomaly": 289.61,
        "meta_ephemeris_type": 0,
        "meta_classification_type": "U",
        "meta_norad_cat_id": 30321,
        "meta_element_set_no": 999,
        "meta_rev_at_epoch": 97739,
        "meta_bstar": 0.00029844155,
        "meta_mean_motion_dot": 5.64e-06,
        "meta_mean_motion_ddot": 0,
        "tle_line1": "1 30321U 99025AAJ 25360.57106126  .00000564  00000+0  29844-3 0  9992",
        "tle_line2": "2 30321  98.6566 359.2313 0060468 196.6742 289.6100 14.16657083977398"
      },
      "geometry": {
        "type": "Point",
        "coordinates": [
          178.47295801144747,
          -7.269617353622877
        ]
      }
    },
    {
      "type": "Feature",
      "properties": {
        "norad_id": 30322,
        "name": "FENGYUN 1C DEB",
        "group": "fengyun-1c-debris",
        "lat": 21.3420863255949,
        "lon": -145.69977922099028,
        "alt_km": 962.2424295816518,
        "timestamp": "2025-12-26T22:28:06.059813+00:00",
        "meta_object_name": "FENGYUN 1C DEB",
        "meta_object_id": "1999-025AAK",
        "meta_epoch": "2025-12-26T13:49:29.301312",
        "meta_mean_motion": 14.06155098,
        "meta_eccentricity": 0.01262792,
        "meta_inclination": 98.398,
        "meta_ra_of_asc_node": 217.275,
        "meta_arg_of_pericenter": 213.5373,
        "meta_mean_anomaly": 145.7756,
        "meta_ephemeris_type": 0,
        "meta_classification_type": "U",
        "meta_norad_cat_id": 30322,
        "meta_element_set_no": 999,
        "meta_rev_at_epoch": 96394,
        "meta_bstar": 0.0010391479,
        "meta_mean_motion_dot": 1.796e-05,
        "meta_mean_motion_ddot": 0,
        "tle_line1": "1 30322U 99025AAK 25360.57603358  .00001796  00000+0  10391-2 0  9996",
        "tle_line2": "2 30322  98.3980 217.2750 0126279 213.5373 145.7756 14.06155098963949"
      },
      "geometry": {
        "type": "Point",
        "coordinates": [
          -145.69977922099028,
          21.3420863255949
        ]
      }
    },
    {
      "type": "Feature",
      "properties": {
        "norad_id": 30325,
        "name": "FENGYUN 1C DEB",
        "group": "fengyun-1c-debris",
        "lat": -23.52177834389521,
        "lon": -163.98770076620977,
        "alt_km": 856.6552764612334,
        "timestamp": "2025-12-26T22:28:06.059823+00:00",
        "meta_object_name": "FENGYUN 1C DEB",
        "meta_object_id": "1999-025AAL",
        "meta_epoch": "2025-12-23T18:31:16.264128",
        "meta_mean_motion": 14.09107979,
        "meta_eccentricity": 0.00155616,
        "meta_inclination": 98.7322,
        "meta_ra_of_asc_node": 16.7817,
        "meta_arg_of_pericenter": 220.3959,
        "meta_mean_anomaly": 139.6057,
        "meta_ephemeris_type": 0,
        "meta_classification_type": "U",
        "meta_norad_cat_id": 30325,
        "meta_element_set_no": 999,
        "meta_rev_at_epoch": 97171,
        "meta_bstar": 0.00014655586,
        "meta_mean_motion_dot": 2.12e-06,
        "meta_mean_motion_ddot": 0,
        "tle_line1": "1 30325U 99025AAL 25357.77171602  .00000212  00000+0  14656-3 0  9990",
        "tle_line2": "2 30325  98.7322  16.7817 0015561 220.3959 139.6057 14.09107979971717"
      },
      "geometry": {
        "type": "Point",
        "coordinates": [
          -163.98770076620977,
          -23.52177834389521
        ]
      }
    }
  ]
}